[{"OBJECT_NAME":"ONEWEB-0643","OBJECT_ID":"2023-029M","EPOCH":"2026-03-09T17:37:21.542304","MEAN_MOTION":13.14502613,"ECCENTRICITY":0.00022434,"INCLINATION":87.8981,"RA_OF_ASC_NODE":309.5834,"ARG_OF_PERICENTER":90.3893,"MEAN_ANOMALY":269.7494,"EPHEMERIS_TYPE":0,"CLASSIFICATION_TYPE":"U","NORAD_CAT_ID":55807,"ELEMENT_SET_NO":999,"REV_AT_EPOCH":14632,"BSTAR":0.00066472551,"MEAN_MOTION_DOT":2.59e-6,"MEAN_MOTION_DDOT":0},{"OBJECT_NAME":"COSMOS 249 DEB","OBJECT_ID":"1968-091BQ","EPOCH":"2026-03-09T08:52:44.203584","MEAN_MOTION":12.74156786,"ECCENTRICITY":0.07908722,"INCLINATION":62.2457,"RA_OF_ASC_NODE":152.27,"ARG_OF_PERICENTER":51.3557,"MEAN_ANOMALY":315.5549,"EPHEMERIS_TYPE":0,"CLASSIFICATION_TYPE":"U","NORAD_CAT_ID":3912,"ELEMENT_SET_NO":999,"REV_AT_EPOCH":63260,"BSTAR":0.00017100051,"MEAN_MOTION_DOT":5.0e-7,"MEAN_MOTION_DDOT":0}]
